     3.03           N: GNSS NAV DATA    R: GLONASS          RINEX VERSION / TYPE
CONVBIN demo5 b34g                      20231126 132224 UTC PGM / RUN BY / DATE 
log: 20230910-MSM7.rtcm                                     COMMENT             
format: RTCM 3                                              COMMENT             
format: RTCM 3                                              COMMENT             
log: 20230910-MSM7.rtcm                                     COMMENT             
                                                            END OF HEADER       
R21 2023 09 10 11 15 00 -.369511544704D-04 -.272848410532D-11  .396000000000D+05
      .235868134766D+05  .134233093262D+01  .279396772385D-08  .000000000000D+00
     -.306632324219D+03  .199432373047D-01 -.186264514923D-08  .400000000000D+01
      .966010302734D+04 -.328011512756D+01  .931322574615D-09  .000000000000D+00
R22 2023 09 10 11 15 00  .834539532661D-04  .181898940355D-11  .396000000000D+05
      .119995400391D+05  .284732151031D+01  .372529029846D-08  .000000000000D+00
     -.767594531250D+04  .526558876038D+00 -.186264514923D-08 -.300000000000D+01
      .211875078125D+05 -.142305183411D+01  .000000000000D+00  .000000000000D+00
R23 2023 09 10 11 15 00 -.957241281867D-04 -.909494701773D-12  .396000000000D+05
     -.795189160156D+04  .288010406494D+01  .931322574615D-09  .000000000000D+00
     -.112338549805D+05  .628371238708D+00  .000000000000D+00  .300000000000D+01
      .214705278320D+05  .139419174194D+01 -.931322574615D-09  .000000000000D+00
R05 2023 09 10 11 15 00  .118798576295D-03  .909494701773D-12  .396000000000D+05
     -.446704101562D+04 -.143243980408D+01  .000000000000D+00  .000000000000D+00
      .180440175781D+05  .191975402832D+01 -.931322574615D-09  .100000000000D+01
      .174590825195D+05 -.235360527039D+01 -.186264514923D-08  .000000000000D+00
R06 2023 09 10 11 15 00 -.128081068397D-03 -.181898940355D-11  .396000000000D+05
      .115905825195D+05 -.190687942505D+01  .279396772385D-08  .000000000000D+00
      .259188769531D+04  .243524169922D+01 -.186264514923D-08 -.400000000000D+01
      .225603818359D+05  .697263717651D+00 -.931322574615D-09  .000000000000D+00
R07 2023 09 10 11 15 00  .643599778414D-04  .909494701773D-12  .396000000000D+05
      .180616079102D+05 -.126330852509D+01  .372529029846D-08  .000000000000D+00
     -.122020991211D+05  .131438732147D+01 -.931322574615D-09  .500000000000D+01
      .133282583008D+05  .291761302948D+01  .931322574615D-09  .000000000000D+00
R08 2023 09 10 11 15 00 -.724662095308D-04  .000000000000D+00  .405000000000D+05
      .151511811523D+05  .802793502808D-01  .279396772385D-08  .000000000000D+00
     -.203904868164D+05 -.378596305847D+00  .000000000000D+00  .600000000000D+01
     -.246003662109D+04  .355340671539D+01  .186264514923D-08  .000000000000D+00
R14 2023 09 10 11 15 00  .252369791269D-04  .000000000000D+00  .396000000000D+05
     -.117523164062D+05 -.115959739685D+01  .000000000000D+00  .000000000000D+00
      .219728027344D+03 -.287056541443D+01  .000000000000D+00 -.700000000000D+01
      .226534042969D+05 -.576072692871D+00 -.186264514923D-08  .000000000000D+00
R15 2023 09 10 11 15 00  .863233581185D-04  .000000000000D+00  .396000000000D+05
     -.314073144531D+04 -.848801612854D+00  .000000000000D+00  .000000000000D+00
      .169636455078D+05 -.242707347870D+01 -.931322574615D-09  .000000000000D+00
      .188168242188D+05  .204823780060D+01 -.186264514923D-08  .000000000000D+00
R16 2023 09 10 11 15 00  .185538083315D-04  .909494701773D-12  .396000000000D+05
      .752396386719D+04 -.387840270996D-01  .000000000000D+00  .000000000000D+00
      .240683076172D+05 -.568741798401D+00 -.931322574615D-09 -.100000000000D+01
      .398374267578D+04  .351888275146D+01 -.931322574615D-09  .000000000000D+00
R08 2023 09 10 11 45 00 -.724662095308D-04  .000000000000D+00  .414000000000D+05
      .148051396484D+05 -.430227279663D+00  .372529029846D-08  .000000000000D+00
     -.204269648438D+05  .360449790955D+00 -.931322574615D-09  .600000000000D+01
      .394856201172D+04  .352113246918D+01  .186264514923D-08  .000000000000D+00
R14 2023 09 10 11 45 00  .252369791269D-04  .000000000000D+00  .414000000000D+05
     -.141116494141D+05 -.143016910553D+01  .000000000000D+00  .000000000000D+00
     -.460446972656D+04 -.245070457458D+01  .000000000000D+00 -.700000000000D+01
      .207554848633D+05 -.151914024353D+01 -.186264514923D-08  .000000000000D+00
R15 2023 09 10 11 45 00  .863233581185D-04  .000000000000D+00  .414000000000D+05
     -.515093164062D+04 -.138226985931D+01  .000000000000D+00  .000000000000D+00
      .123708588867D+05 -.262684822083D+01 -.931322574615D-09  .000000000000D+00
      .217305761719D+05  .116833972931D+01 -.279396772385D-08  .000000000000D+00
R16 2023 09 10 11 45 00  .185556709766D-04  .909494701773D-12  .414000000000D+05
      .703566015625D+04 -.532248497009D+00  .000000000000D+00  .000000000000D+00
      .223762675781D+05 -.128011703491D+01 -.931322574615D-09 -.100000000000D+01
      .100824692383D+05  .321360301971D+01 -.931322574615D-09  .000000000000D+00
R21 2023 09 10 11 45 00 -.369539484382D-04 -.272848410532D-11  .414000000000D+05
      .252478188477D+05  .483743667603D+00  .186264514923D-08  .000000000000D+00
     -.512328125000D+03 -.209650993347D+00 -.186264514923D-08  .400000000000D+01
      .345804296875D+04 -.356621646881D+01  .931322574615D-09  .000000000000D+00
R22 2023 09 10 11 45 00  .834576785564D-04  .181898940355D-11  .414000000000D+05
      .167994033203D+05  .243901348114D+01  .279396772385D-08  .000000000000D+00
     -.714995410156D+04  .728712081909D-01 -.186264514923D-08 -.300000000000D+01
      .178421298828D+05 -.227001953125D+01  .000000000000D+00  .000000000000D+00
R23 2023 09 10 11 45 00 -.957259908319D-04 -.909494701773D-12  .414000000000D+05
     -.246468261719D+04  .316676235199D+01  .186264514923D-08  .000000000000D+00
     -.104808437500D+05  .191500663757D+00 -.931322574615D-09  .300000000000D+01
      .231172338867D+05  .423572540283D+00 -.931322574615D-09  .000000000000D+00
R05 2023 09 10 11 45 00  .118794851005D-03  .909494701773D-12  .414000000000D+05
     -.645721630859D+04 -.784010887146D+00 -.931322574615D-09  .000000000000D+00
      .212056850586D+05  .154688167572D+01  .000000000000D+00  .100000000000D+01
      .126018681641D+05 -.300827980042D+01 -.186264514923D-08  .000000000000D+00
R06 2023 09 10 11 45 00 -.128084793687D-03 -.181898940355D-11  .414000000000D+05
      .844330859375D+04 -.155948829651D+01  .931322574615D-09  .000000000000D+00
      .727750097656D+04  .272934532166D+01 -.186264514923D-08 -.400000000000D+01
      .229258432617D+05 -.293903350830D+00 -.931322574615D-09  .000000000000D+00
R07 2023 09 10 11 45 00  .643618404865D-04  .909494701773D-12  .414000000000D+05
      .156358720703D+05 -.138700103760D+01  .372529029846D-08  .000000000000D+00
     -.918243603516D+04  .202934074402D+01 -.186264514923D-08  .500000000000D+01
      .179996645508D+05  .223931884766D+01  .000000000000D+00  .000000000000D+00
